#dV2023  2  7 22  0  0.00000000    1682       CTS   FIT  GFZ
## 2248 252000.00000000    30.00000000 59982 0.9166666666667
+    1   L65  0  0  0  0  0  0  0  0  0  0  0  0  0  0  0  0
+          0  0  0  0  0  0  0  0  0  0  0  0  0  0  0  0  0
+          0  0  0  0  0  0  0  0  0  0  0  0  0  0  0  0  0
+          0  0  0  0  0  0  0  0  0  0  0  0  0  0  0  0  0
+          0  0  0  0  0  0  0  0  0  0  0  0  0  0  0  0  0
++         0  0  0  0  0  0  0  0  0  0  0  0  0  0  0  0  0
++         0  0  0  0  0  0  0  0  0  0  0  0  0  0  0  0  0
++         0  0  0  0  0  0  0  0  0  0  0  0  0  0  0  0  0
++         0  0  0  0  0  0  0  0  0  0  0  0  0  0  0  0  0
++         0  0  0  0  0  0  0  0  0  0  0  0  0  0  0  0  0
%c L  cc GPS ccc cccc cccc cccc cccc ccccc ccccc ccccc ccccc
%c cc cc ccc ccc cccc cccc cccc cccc ccccc ccccc ccccc ccccc
%f  0.0000000  0.000000000  0.00000000000  0.000000000000000
%f  0.0000000  0.000000000  0.00000000000  0.000000000000000
%i    0    0    0    0      0      0      0      0         0
%i    0    0    0    0      0      0      0      0         0
/* CCCCCCCCCCCCCCCCCCCCCCCCCCCCCCCCCCCCCCCCCCCCCCCCCCCCCCCCCCCCCCCCCCCCCCCCCCCCC
/* C                             GFZ RSO-ORBIT                                 C
/* C DOI: https://doi.org/10.5880/GFZ_ORBIT/RSO/L65_G_v02                      C
/* C                                                                           C
/* C DORIS        RMS: not applicable                                          C
/* C GNSS-E Code  RMS: not applicable                                          C
/* C GNSS-E Phase RMS: not applicable                                          C
/* C GNSS-G Code  RMS:  48.651 [cm]   Obs.acc.:     14072 Obs.eli.:       982  C
/* C GNSS-G Phase RMS:   4.302 [mm]   Obs.acc.:     14072 Obs.eli.:       982  C
/* C SLR          RMS:   1.754 [cm]   Obs.acc.:        29 Obs.eli.:         0  C
/* C                                                                           C
/* CCCCCCCCCCCCCCCCCCCCCCCCCCCCCCCCCCCCCCCCCCCCCCCCCCCCCCCCCCCCCCCCCCCCCCCCCCCCC
*  2023  2  8  6 55 30.00000000
PL65   1850.581226  -2860.902028   5948.230786   4645.950740
VL65  36109.271362 -55428.308777 -37896.716959 999999.999999
*  2023  2  8  6 56  0.00000000
PL65   1957.505407  -3025.811160   5831.253150   4646.419977
VL65  35167.606289 -54500.268012 -40081.216633 999999.999999
*  2023  2  8  6 56 30.00000000
PL65   2061.552068  -3187.839005   5707.787646   4646.889344
VL65  34191.146568 -53507.599103 -42221.558495 999999.999999
*  2023  2  8  6 57  0.00000000
PL65   2162.618836  -3346.793050   5577.970362   4647.358769
VL65  33181.237521 -52451.228012 -44315.339661 999999.999999
*  2023  2  8  6 57 30.00000000
PL65   2260.607422  -3502.483672   5441.944524   4647.828205
VL65  32139.257736 -51332.158187 -46360.206627 999999.999999
*  2023  2  8  6 58  0.00000000
PL65   2355.423721  -3654.724378   5299.860341   4648.297606
VL65  31066.618000 -50151.469821 -48353.856605 999999.999999
*  2023  2  8  6 58 30.00000000
PL65   2446.977910  -3803.332027   5151.874852   4648.766992
VL65  29964.760127 -48910.320121 -50294.040270 999999.999999
*  2023  2  8  6 59  0.00000000
PL65   2535.184534  -3948.127068   4998.151760   4649.236393
VL65  28835.154921 -47609.942912 -52178.564713 999999.999999
*  2023  2  8  6 59 30.00000000
PL65   2619.962591  -4088.933764   4838.861259   4649.706136
VL65  27679.301204 -46251.647946 -54005.296409 999999.999999
*  2023  2  8  7  0  0.00000000
PL65   2701.235617  -4225.580420   4674.179847   4650.176298
VL65  26498.724664 -44836.819882 -55772.165528 999999.999999
*  2023  2  8  7  0 30.00000000
PL65   2778.931765  -4357.899606   4504.290132   4650.646813
VL65  25294.974984 -43366.916118 -57477.170488 999999.999999
*  2023  2  8  7  1  0.00000000
PL65   2852.983863  -4485.728366   4329.380622   4651.117204
VL65  24069.621765 -41843.463256 -59118.379898 999999.999999
*  2023  2  8  7  1 30.00000000
PL65   2923.329479  -4608.908428   4149.645513   4651.587453
VL65  22824.252331 -40268.055497 -60693.931622 999999.999999
*  2023  2  8  7  2  0.00000000
PL65   2989.910965  -4727.286404   3965.284484   4652.057446
VL65  21560.471338 -38642.355238 -62202.034315 999999.999999
*  2023  2  8  7  2 30.00000000
PL65   3052.675515  -4840.713994   3776.502475   4652.527893
VL65  20279.899321 -36968.092223 -63640.971453 999999.999999
*  2023  2  8  7  3  0.00000000
PL65   3111.575204  -4949.048187   3583.509461   4653.000217
VL65  18984.170458 -35247.061063 -65009.104649 999999.999999
*  2023  2  8  7  3 30.00000000
PL65   3166.567026  -5052.151448   3386.520212   4653.471689
VL65  17674.930215 -33481.118874 -66304.876092 999999.999999
*  2023  2  8  7  4  0.00000000
PL65   3217.612928  -5149.891905   3185.754044   4653.942739
VL65  16353.832730 -31672.183186 -67526.811019 999999.999999
*  2023  2  8  7  4 30.00000000
PL65   3264.679825  -5242.143527   2981.434574   4654.414216
VL65  15022.537851 -29822.229094 -68673.519926 999999.999999
*  2023  2  8  7  5  0.00000000
PL65   3307.739620  -5328.786289   2773.789457   4654.886022
VL65  13682.708522 -27933.286133 -69743.699424 999999.999999
*  2023  2  8  7  5 30.00000000
PL65   3346.769206  -5409.706335   2563.050127   4655.356915
VL65  12336.009185 -26007.436296 -70736.132412 999999.999999
*  2023  2  8  7  6  0.00000000
PL65   3381.750470  -5484.796132   2349.451542   4655.826821
VL65  10984.104810 -24046.813437 -71649.689273 999999.999999
*  2023  2  8  7  6 30.00000000
PL65   3412.670294  -5553.954626   2133.231909   4656.296414
VL65   9628.659162 -22053.602264 -72483.331995 999999.999999
*  2023  2  8  7  7  0.00000000
PL65   3439.520542  -5617.087386   1914.632410   4656.765468
VL65   8271.330414 -20030.033082 -73236.117994 999999.999999
*  2023  2  8  7  7 30.00000000
PL65   3462.298043  -5674.106735   1693.896909   4657.235020
VL65   6913.768369 -17978.375618 -73907.198681 999999.999999
*  2023  2  8  7  8  0.00000000
PL65   3481.004562  -5724.931858   1471.271682   4657.704206
VL65   5557.615212 -15900.937867 -74495.818359 999999.999999
*  2023  2  8  7  8 30.00000000
PL65   3495.646776  -5769.488926   1247.005123   4658.173247
VL65   4204.503109 -13800.065112 -75001.317717 999999.999999
*  2023  2  8  7  9  0.00000000
PL65   3506.236239  -5807.711191   1021.347462   4658.642162
VL65   2856.049311 -11678.135403 -75423.133615 999999.999999
*  2023  2  8  7  9 30.00000000
PL65   3512.789333  -5839.539090    794.550478   4659.111470
VL65   1513.855602  -9537.558665 -75760.795999 999999.999999
*  2023  2  8  7 10  0.00000000
PL65   3515.327221  -5864.920337    566.867216   4659.580558
VL65    179.509079  -7380.777085 -76013.931754 999999.999999
*  2023  2  8  7 10 30.00000000
PL65   3513.875804  -5883.810016    338.551688   4660.050288
VL65  -1145.420836  -5210.259780 -76182.270041 999999.999999
*  2023  2  8  7 11  0.00000000
PL65   3508.465660  -5896.170650    109.858565   4660.520481
VL65  -2459.386925  -3028.496834 -76265.642009 999999.999999
*  2023  2  8  7 11 30.00000000
PL65   3499.131970  -5901.972259   -118.957126   4660.990329
VL65  -3760.866964   -837.995766 -76263.979391 999999.999999
*  2023  2  8  7 12  0.00000000
PL65   3485.914441  -5901.192407   -347.640305   4661.459804
VL65  -5048.365769   1358.722226 -76177.314039 999999.999999
*  2023  2  8  7 12 30.00000000
PL65   3468.857223  -5893.816240   -575.936135   4661.929247
VL65  -6320.417576   3559.125652 -76005.776503 999999.999999
*  2023  2  8  7 13  0.00000000
PL65   3448.008819  -5879.836507   -803.590316   4662.398730
VL65  -7575.587203   5760.675413 -75749.594540 999999.999999
*  2023  2  8  7 13 30.00000000
PL65   3423.421987  -5859.253585  -1030.349378   4662.867905
VL65  -8812.470496   7960.827136 -75409.092219 999999.999999
*  2023  2  8  7 14  0.00000000
PL65   3395.153655  -5832.075489  -1255.960967   4663.337084
VL65 -10029.695231  10157.033797 -74984.690654 999999.999999
*  2023  2  8  7 14 30.00000000
PL65   3363.264814  -5798.317873  -1480.174138   4663.806030
VL65 -11225.922899  12346.749763 -74476.907842 999999.999999
*  2023  2  8  7 15  0.00000000
PL65   3327.820419  -5758.004023  -1702.739644   4664.275104
VL65 -12399.850473  14527.433050 -73886.357845 999999.999999
*  2023  2  8  7 15 30.00000000
PL65   3288.889278  -5711.164843  -1923.410225   4664.744062
VL65 -13550.212844  16696.548444 -73213.751389 999999.999999
*  2023  2  8  7 16  0.00000000
PL65   3246.543934  -5657.838825  -2141.940898   4665.213201
VL65 -14675.785224  18851.572419 -72459.894336 999999.999999
*  2023  2  8  7 16 30.00000000
PL65   3200.860541  -5598.072009  -2358.089236   4665.682340
VL65 -15775.384339  20989.996763 -71625.685195 999999.999999
*  2023  2  8  7 17  0.00000000
PL65   3151.918743  -5531.917934  -2571.615644   4666.151714
VL65 -16847.869227  23109.331792 -70712.113691 999999.999999
*  2023  2  8  7 17 30.00000000
PL65   3099.801539  -5459.437576  -2782.283632   4666.621186
VL65 -17892.142469  25207.109507 -69720.259122 999999.999999
*  2023  2  8  7 18  0.00000000
PL65   3044.595154  -5380.699279  -2989.860080   4667.090679
VL65 -18907.151333  27280.886006 -68651.288002 999999.999999
*  2023  2  8  7 18 30.00000000
PL65   2986.388904  -5295.778680  -3194.115494   4667.560181
VL65 -19891.888651  29328.243668 -67506.452930 999999.999999
*  2023  2  8  7 19  0.00000000
PL65   2925.275055  -5204.758625  -3394.824268   4668.029767
VL65 -20845.394562  31346.794867 -66287.091401 999999.999999
*  2023  2  8  7 19 30.00000000
PL65   2861.348681  -5107.729073  -3591.764932   4668.499384
VL65 -21766.757617  33334.185437 -64994.622637 999999.999999
*  2023  2  8  7 20  0.00000000
PL65   2794.707517  -5004.786993  -3784.720392   4668.968843
VL65 -22655.114911  35288.096673 -63630.544967 999999.999999
*  2023  2  8  7 20 30.00000000
PL65   2725.451813  -4896.036254  -3973.478167   4669.438120
VL65 -23509.652471  37206.247469 -62196.434560 999999.999999
EOF
